{"type": "FeatureCollection", "features": [{"type": "Feature", "geometry": {"type": "Point", "coordinates": [-0.948405, 51.839436]}, "properties": {"name": "Waddesdon", "description": "This is a gentle sloping grassland site with deep clay/loam soil. It is close to Aylesbury in Buckinghamshire and within the estate of Waddesdon Manor. Two eddy covariance flux monitoring sites are located nearby.", "url": "https://dri-ui.staging.eds.ceh.ac.uk/cosmos/sites/WADDN?view=explore"}}, {"type": "Feature", "geometry": {"type": "Point", "coordinates": [0.18887, 50.79372]}, "properties": {"name": "Lullington Heath", "description": "Lullington Heath is in the rolling landscape of the South Downs between the villages of Litlington and Jevington and just a few kilometres inland from the Seven Sisters and Beachy Head. The site is hosted by Natural England within the Lullington Heath National Nature Reserve. The reserve is a patchwork of chalk grassland, perhaps the land cover most associated with the South Downs, valley grassland and chalk heath. The last of these is a combination of acid soil over alkaline chalk which supports plants loving both acid and alkaline conditions.", "url": "https://dri-ui.staging.eds.ceh.ac.uk/cosmos/sites/LULLN?view=explore"}}, {"type": "Feature", "geometry": {"type": "Point", "coordinates": [0.320276, 51.228582]}, "properties": {"name": "Hadlow", "description": "This site is located at an agricultural college farm to the north west of Hadlow. The field hosting the COSMOS-UK site is a grazed grassland on mineral soil.", "url": "https://dri-ui.staging.eds.ceh.ac.uk/cosmos/sites/HADLW?view=explore"}}, {"type": "Feature", "geometry": {"type": "Point", "coordinates": [-2.025488, 55.216677]}, "properties": {"name": "Harwood Forest", "description": "The Harwood site sits within the mature coniferous Harwood Forest which is managed by the Forestry Commission. Close to 90% of the forested area is Sitka spruce although current restocking proposals are to increase species diversity including native broadleaf planting. The COSMOS-UK site is co-located with a greenhouse gas flux monitoring tower operated by Forest Research.", "url": "https://dri-ui.staging.eds.ceh.ac.uk/cosmos/sites/HARWD?view=explore"}}, {"type": "Feature", "geometry": {"type": "Point", "coordinates": [-2.384689, 54.023711]}, "properties": {"name": "Gisburn Forest", "description": "The Gisburn site is at the eastern edge of the Forest of Bowland above Stocks Reservoir in the headwaters of the River Hodder. The site is hosted by Forest Research. Within the footprint of the CRNS is a patchwork of conferious forest at different stages of growth. The site itself is located in an open area of rough grassland.", "url": "https://dri-ui.staging.eds.ceh.ac.uk/cosmos/sites/GISBN?view=explore"}}, {"type": "Feature", "geometry": {"type": "Point", "coordinates": [-1.12685, 52.86073]}, "properties": {"name": "Bunny Park", "description": "Bunny Park (160 ha) is part of the University of Nottingham Farm comprising a range of arable, woodland and grassland land cover types. The COSMOS-UK site is flat, surrounded by arable crops on sandy to sandy loam soils.", "url": "https://dri-ui.staging.eds.ceh.ac.uk/cosmos/sites/BUNNY?view=explore"}}, {"type": "Feature", "geometry": {"type": "Point", "coordinates": [-5.19999, 50.03266]}, "properties": {"name": "The Lizard", "description": "The Lizard is a Natural England National Nature Reserve (NNR), comprising wildlife rich heathland and coastline. The Lizard Peninsula hosts rare plants, invertebrates, and habitats with much of the area assigned as Sites of Special Scientific Interest. The COSMOS-UK site is situated on grassland on sandy soils. The site regularly ponds with water for extended periods after rain, before draining rapidly.", "url": "https://dri-ui.staging.eds.ceh.ac.uk/cosmos/sites/LIZRD?view=explore"}}, {"type": "Feature", "geometry": {"type": "Point", "coordinates": [-3.762572, 52.453337]}, "properties": {"name": "Plynlimon", "description": "Plynlimon is located at the northern end of the Cambrian Mountains in the headwaters of the River Wye. The Plynlimon area has hosted a range of environmental monitoring equipment since the 1960s. The soil has a high organic content supporting a semi-natural grassland vegetation.", "url": "https://dri-ui.staging.eds.ceh.ac.uk/cosmos/sites/PLYNL?view=explore"}}, {"type": "Feature", "geometry": {"type": "Point", "coordinates": [0.42104, 52.44577]}, "properties": {"name": "Redmere", "description": "This site is located on the East Anglian Fens near Ely, situated on a grass strip between two arable fields growing a variety of crops, including maize, on peat soils. This COSMOS-UK site ceased operation in 2018.", "url": "https://dri-ui.staging.eds.ceh.ac.uk/cosmos/sites/RDMER?view=explore"}}, {"type": "Feature", "geometry": {"type": "Point", "coordinates": [-3.207115, 55.867392]}, "properties": {"name": "Easter Bush", "description": "Easter Bush is located to the south of Edinburgh, close to the UKCEH Edinburgh site on the Bush Estate at Penicuik. It is co-located with an eddy covariance flux monitoring site. It is a grassland site with a typical loamy mineral soil.", "url": "https://dri-ui.staging.eds.ceh.ac.uk/cosmos/sites/EASTB?view=explore"}}, {"type": "Feature", "geometry": {"type": "Point", "coordinates": [-2.82881, 51.207417]}, "properties": {"name": "Tadham Moor", "description": "This site on a peat-based moor is located in the area generally known as the Somerset Levels. The moor is a very flat landscape only very slightly above sea-level, and is prone to flooding. Water is managed via a series of drains and sluices. Because of its importance as a wetland, the site is designated as a Site of Special Scientific Interest (Tealham and Tadham Moors SSSI) and a RAMSAR site. The land use is grassland, occasionally grazed. The site is co-located with eddy covariance flux monitoring equipment.", "url": "https://dri-ui.staging.eds.ceh.ac.uk/cosmos/sites/TADHM?view=explore"}}, {"type": "Feature", "geometry": {"type": "Point", "coordinates": [-2.562155, 56.914403]}, "properties": {"name": "Glensaugh", "description": "The Glensaugh Farm is run by the James Hutton Institute to provide facilities for agricultural and land use research. It is located at the southern edge of the Grampian Highlands. The farm is comprised of permanent pasture, improved pasture/arable, and semi-natural/moorland communities. The COSMOS-UK site is located on a south facing slope, within the last of these communities, in an area that is a complex patchwork of acid grassland and heather. The COSMOS-UK site at Glensaugh is the most northerly and highest within the network.", "url": "https://dri-ui.staging.eds.ceh.ac.uk/cosmos/sites/GLENS?view=explore"}}, {"type": "Feature", "geometry": {"type": "Point", "coordinates": [-0.858232, 51.153551]}, "properties": {"name": "Alice Holt", "description": "This is one of the few COSMOS-UK sites located in woodland; in this case the Alice Holt Forest managed by the Forestry Commission and situated in the South Downs National Park. Alice Holt is also one of the main research stations of Forest Research. The COSMOS-UK instrumentation is co-located with monitoring equipment operated by Forest Research that contributes to FLUXNET and the Environmental Change Network, in an area of broadleaf trees and scrub.", "url": "https://dri-ui.staging.eds.ceh.ac.uk/cosmos/sites/ALIC1?view=explore"}}, {"type": "Feature", "geometry": {"type": "Point", "coordinates": [-0.378304, 51.813787]}, "properties": {"name": "Rothamsted", "description": "Located in the grounds of Rothamsted Research at Harpenden in Hertfordshire, a site of agricultural research since 1843, and the site of long term and innovative hydrometeorological measurement. Current research at Rothamsted addresses all aspects of arable agriculture. It is a flat site with well-drained or moderately well-drained clayey loam soil.", "url": "https://dri-ui.staging.eds.ceh.ac.uk/cosmos/sites/ROTHD?view=explore"}}, {"type": "Feature", "geometry": {"type": "Point", "coordinates": [-0.826419, 52.610159]}, "properties": {"name": "Loddington", "description": "Loddington is the base of the Game and Wildlife Conservation Trust's Allerton Project which undertakes research on the effects of different farming methods on wildlife and the environment. The management of soil and water and 'Water Friendly Farming' is of particular interest to the project.  The clay soils of the farm are mainly used for arable crop production and in recent years there has been a move to reduced tillage and direct drilling.", "url": "https://dri-ui.staging.eds.ceh.ac.uk/cosmos/sites/LODTN?view=explore"}}, {"type": "Feature", "geometry": {"type": "Point", "coordinates": [-2.662105, 52.02088]}, "properties": {"name": "Holme Lacy", "description": "The Holme Lacy site is based on the Holme Lacy College Pound Farm, which is an organic mixed farm in Herefordshire. The farm produces potatoes, wheat, oats, pea and barley mix, beans and cider apples as well as Hereford cattle and Lleyn sheep. The COSMOS-UK site is situated on a narrow buffer strip of rough grassland between two different crop fields.", "url": "https://dri-ui.staging.eds.ceh.ac.uk/cosmos/sites/HLACY?view=explore"}}, {"type": "Feature", "geometry": {"type": "Point", "coordinates": [-1.31886, 53.86886]}, "properties": {"name": "Spen Farm", "description": "Spen Farm together with Headley Hall and Wise Warren are the three farms that comprise the University of Leeds Research Farm. Spen Farm houses the The National Pig Centre, part of the Centre for Innovation Excellence in Livestock (CIEL). The COSMOS-UK site is on the boundary between two large fields on Headley Hall Farm which is part of the University of Leeds' 'Smart farm' research programme. The site is co-located with a Met Office monitoring site.", "url": "https://dri-ui.staging.eds.ceh.ac.uk/cosmos/sites/SPENF?view=explore"}}, {"type": "Feature", "geometry": {"type": "Point", "coordinates": [-4.403543, 55.941421]}, "properties": {"name": "Cochno", "description": "The Cochno Farm and Research Centre is part of the University of Glasgow's Scottish Centre for Production Animal Health and Food Safety. To the north east of city, the site is south facing grassland with clayey loam to sandy loam soils. The COSMOS-UK site ceased operation in 2020.", "url": "https://dri-ui.staging.eds.ceh.ac.uk/cosmos/sites/COCHN?view=explore"}}, {"type": "Feature", "geometry": {"type": "Point", "coordinates": [-6.004599, 54.838087]}, "properties": {"name": "Glenwherry", "description": "This site is located at the CAFRE (College of Agriculture, Food and Rural Enterprise) Hill Farm Centre in Glenwherry, midway between Ballymena and Larne. The ~1000 ha farm comprises 100 suckler cows and 1100 breeding ewes and strives to demonstrate effective integration of livestock and environmental management. The soils near the COSMOS-UK site have very high organic carbon and low bulk density.", "url": "https://dri-ui.staging.eds.ceh.ac.uk/cosmos/sites/GLENW?view=explore"}}, {"type": "Feature", "geometry": {"type": "Point", "coordinates": [-2.4678, 54.659417]}, "properties": {"name": "Moor House", "description": "The site is located on the south west edge of the Moor House Upper Teesdale National Nature Reserve on a site that drains to the River Eden to the west rather than the River Tees to the east. The mineral loamy soil has a high organic content and supports cotton grass and heather.", "url": "https://dri-ui.staging.eds.ceh.ac.uk/cosmos/sites/MOORH?view=explore"}}, {"type": "Feature", "geometry": {"type": "Point", "coordinates": [-7.291954, 54.298468]}, "properties": {"name": "Fivemiletown", "description": "This site is located at a working farm in County Tyrone, and is one of three COSMOS-UK sites situated in Northern Ireland. The arable field in which the COSMOS-UK site is located slopes gently to the south.", "url": "https://dri-ui.staging.eds.ceh.ac.uk/cosmos/sites/FIVET?view=explore"}}, {"type": "Feature", "geometry": {"type": "Point", "coordinates": [0.784711, 52.383178]}, "properties": {"name": "Euston", "description": "The site is hosted by Euston Estate which comprises a mixture of farmland and woodland. The site itself is located in a flat area of improved grassland. The land is very well draining and is generally amongst the driest of the COSMOS-UK sites.", "url": "https://dri-ui.staging.eds.ceh.ac.uk/cosmos/sites/EUSTN?view=explore"}}, {"type": "Feature", "geometry": {"type": "Point", "coordinates": [-2.527891, 50.828373]}, "properties": {"name": "Sydling", "description": "This site is located in an 'Area of Outstanding Natural Beauty' on a working farm in West Dorset. The 1034 ha organic farm hosts livestock, rare flora and fauna, ancient woodland, and bodies of water. The COSMOS-UK site is situated in an arable field next to a grazed grassland, on typical mineral soils.", "url": "https://dri-ui.staging.eds.ceh.ac.uk/cosmos/sites/SYDLG?view=explore"}}, {"type": "Feature", "geometry": {"type": "Point", "coordinates": [-0.424644, 52.105601]}, "properties": {"name": "Cardington", "description": "The Cardington site is based on the Met Office Meteorological Research Unit at the Cardington Air Field, Bedfordshire. The facility has a wide variety of research-grade surface, sub-surface, mast-mounted, and balloon-borne instruments. The COSMOS-UK site is located on flat maintained grassland on typical mineral soil of clayey to sandy loam.", "url": "https://dri-ui.staging.eds.ceh.ac.uk/cosmos/sites/CARDT?view=explore"}}, {"type": "Feature", "geometry": {"type": "Point", "coordinates": [-1.694374, 55.216013]}, "properties": {"name": "Cockle Park", "description": "Cockle Park Farm is a 262 ha working farm owned by Newcastle University and located to the north of Morpeth in Northumberland. The farm links farming practice, landscape management and rural enterprise with cutting edge interdisciplinary research in agriculture. The COSMOS-UK site is located in the centre of a field that slopes gently down to the River Lyne. This area of the farm is used for growing cereals and oilseeds.", "url": "https://dri-ui.staging.eds.ceh.ac.uk/cosmos/sites/COCLP?view=explore"}}, {"type": "Feature", "geometry": {"type": "Point", "coordinates": [0.510728, 52.617773]}, "properties": {"name": "Fincham", "description": "Fincham is a privately owned farm and food processing plant in northwest Norfolk. The COSMOS-UK site is situated in a large, flat arable crop field with winter wheat, oil seed rape and sugar beet on 6 year rotation. The soil type is chalky loam, a calcareous mineral soil.", "url": "https://dri-ui.staging.eds.ceh.ac.uk/cosmos/sites/FINCH?view=explore"}}, {"type": "Feature", "geometry": {"type": "Point", "coordinates": [0.993065, 52.094647]}, "properties": {"name": "Elmsett", "description": "This site is located at Agroco Farms, a working farm to the north-west of Ipswich. The COSMOS-UK site is situated on a strip of grassland running between arable and horticultural fields. Soils in the area are locally chalky, generally loam to clayey loam.", "url": "https://dri-ui.staging.eds.ceh.ac.uk/cosmos/sites/ELMST?view=explore"}}, {"type": "Feature", "geometry": {"type": "Point", "coordinates": [-4.746634, 51.951295]}, "properties": {"name": "Cwm Garw", "description": "The Cwm Garw site is on a working farm on the southern side of the Preseli Mountains in Pembrokeshire. The field in which the COSMOS-UK site is located is a grazed grassland on loam to clay soils. The site is co-located with BGS monitoring equipment.", "url": "https://dri-ui.staging.eds.ceh.ac.uk/cosmos/sites/CGARW?view=explore"}}, {"type": "Feature", "geometry": {"type": "Point", "coordinates": [-2.944686, 52.581248]}, "properties": {"name": "Stiperstones", "description": "This site is located in the Stiperstones National Nature Reserve in south Shropshire. This includes a major part of the Stiperstones ridge and has geology of national significance due to the Ordovician 'Stiperstones Quartzite'. The COSMOS-UK site is situated on a slightly sloping rough grassland, acid/ heathland grazed by livestock. The soil is an organic soil with some mineral material, resulting in high moisture content, high soil organic carbon and low bulk density.", "url": "https://dri-ui.staging.eds.ceh.ac.uk/cosmos/sites/STIPS?view=explore"}}, {"type": "Feature", "geometry": {"type": "Point", "coordinates": [-0.959477, 54.110665]}, "properties": {"name": "Hollin Hill", "description": "The site at Hollin Hill is on a steep south facing slope in the Howardian Hills to the north-east of York. The steepness means that it departs from the ideal requirements for a COSMOS-UK site, but the site is interesting as a landslide observatory operated by the British Geological Survey. It is a grassland site on which sheep graze.", "url": "https://dri-ui.staging.eds.ceh.ac.uk/cosmos/sites/HOLLN?view=explore"}}, {"type": "Feature", "geometry": {"type": "Point", "coordinates": [-1.563081, 52.199407]}, "properties": {"name": "Moreton Morrell", "description": "The site is hosted by Moreton Morrell College which has a 300 ha site in Warwickshire. Two-thirds of the site is operated as a commercial farm that also teaches students modern farming techniques including precision agriculture. The site is located in a flat area of improved grassland.", "url": "https://dri-ui.staging.eds.ceh.ac.uk/cosmos/sites/MOREM?view=explore"}}, {"type": "Feature", "geometry": {"type": "Point", "coordinates": [-0.597484, 51.367821]}, "properties": {"name": "Chobham Common", "description": "Chobham Common is one of the finest examples of a lowland heath in the world and contains a wide range of habitats and rare biodiversity. Heathland is an ancient and characteristic British landscape that was in fact created by prehistoric farmers, and managed down the generations providing a living link to our stone-age past. Soils are highly variable in thickness and texture from sand to coarse gravel.", "url": "https://dri-ui.staging.eds.ceh.ac.uk/cosmos/sites/CHOBH?view=explore"}}, {"type": "Feature", "geometry": {"type": "Point", "coordinates": [-4.01255, 53.225198]}, "properties": {"name": "Henfaes Farm", "description": "The Henfaes Research Centre is the main field facility of Bangor University's School of Environment, Natural Resources and Geography. The COSMOS-UK site is located in an upland area that is operated as a commercial sheep unit within the Centre for Hill and Upland Management. The site is situated on silty mineral soils with a high organic matter content.", "url": "https://dri-ui.staging.eds.ceh.ac.uk/cosmos/sites/HENFS?view=explore"}}, {"type": "Feature", "geometry": {"type": "Point", "coordinates": [-3.583386, 55.043057]}, "properties": {"name": "Crichton", "description": "The Crichton Royal farm is located south of Dumfries and operated by Scotland's Rural College, SRUC as its Dairy Research Centre. It is a grassland site that slopes gently to the south west on soils that are clayey loams to sandy loams.", "url": "https://dri-ui.staging.eds.ceh.ac.uk/cosmos/sites/CRICH?view=explore"}}, {"type": "Feature", "geometry": {"type": "Point", "coordinates": [-1.33846, 51.77728]}, "properties": {"name": "Wytham Woods", "description": "This site located in a loop of the River Thames 5km north west of Oxford on an estate owned by the University of Oxford. The woodlands are a designated SSSI and also host an ECN and FLUXNET monitoring site. The COSMOS-UK ceased operation in 2016.", "url": "https://dri-ui.staging.eds.ceh.ac.uk/cosmos/sites/WYTH1?view=explore"}}, {"type": "Feature", "geometry": {"type": "Point", "coordinates": [-0.525907, 53.261647]}, "properties": {"name": "Riseholme", "description": "The Riseholme site is based at Riseholme College Agricultural Centre in Lincoln, a centre for vocational excellence in agriculture. The COSMOS-UK site is located in a livestock grazed grass field, on calcareous mineral soil.", "url": "https://dri-ui.staging.eds.ceh.ac.uk/cosmos/sites/RISEH?view=explore"}}, {"type": "Feature", "geometry": {"type": "Point", "coordinates": [-3.828995, 55.810254]}, "properties": {"name": "Hartwood Home", "description": "Hartwood Home Farm is located near Shotts in Lanarkshire, in an area of upland farms devoted to stock rearing. The soils are heavy, poorly drained gleys typical of soils found in this part of central Scotland. High rainfall combined with poor drainage mean \"poaching\" is common especially from October to May. The site was previously managed by the James Hutton Institute and research was concerned with the development of sustainable management systems to meet agricultural and environmental objectives.", "url": "https://dri-ui.staging.eds.ceh.ac.uk/cosmos/sites/HARTW?view=explore"}}, {"type": "Feature", "geometry": {"type": "Point", "coordinates": [0.417923, 51.733896]}, "properties": {"name": "Writtle", "description": "This site is based on the Writtle University College farm site in Writtle, Essex. The COSMOS-UK site is situated between fields of rough and livestock-grazed grassland. The soil is stoney London clay, the typical mineral soil of the area.", "url": "https://dri-ui.staging.eds.ceh.ac.uk/cosmos/sites/WRTTL?view=explore"}}, {"type": "Feature", "geometry": {"type": "Point", "coordinates": [-2.70053, 53.02635]}, "properties": {"name": "Bickley Hall", "description": "Bickley Hall Farm is an organic working farm in the heart of run by the Cheshire Wildlife Trust. The wildlife-friendly farm management regime is supported by Natural England's Countryside Stewardship Scheme to maintain species-rich hay meadows and pastures. Soils are sands and sandy loams.", "url": "https://dri-ui.staging.eds.ceh.ac.uk/cosmos/sites/BICKL?view=explore"}}, {"type": "Feature", "geometry": {"type": "Point", "coordinates": [-1.047046, 52.601667]}, "properties": {"name": "Stoughton", "description": "The Stoughton site is on an arable farm owned by Farmcare. The site is flat with loam to clayey loam soils.", "url": "https://dri-ui.staging.eds.ceh.ac.uk/cosmos/sites/STGHT?view=explore"}}, {"type": "Feature", "geometry": {"type": "Point", "coordinates": [1.034231, 52.548146]}, "properties": {"name": "Morley", "description": "This site is hosted by the Morley Agricultural Foundation, a charity set up to support farming in the east of England through research and education. The farmed area is 300 ha of which about 90% are cropped. The farm undertakes field trials for a number of organisations at both field and plot scale. The COSMOS-UK site is located in a flat area on the boundary between two fields.", "url": "https://dri-ui.staging.eds.ceh.ac.uk/cosmos/sites/MORLY?view=explore"}}, {"type": "Feature", "geometry": {"type": "Point", "coordinates": [-2.079616, 51.20277]}, "properties": {"name": "Heytesbury", "description": "The Heytesbury COSMOS-UK site is based on an active MOD site in Wiltshire. The hilly region is an expanse of fields and small patches of woodland. The site is situated on exposed grassland with compact limestone and flint soil.", "url": "https://dri-ui.staging.eds.ceh.ac.uk/cosmos/sites/HYBRY?view=explore"}}, {"type": "Feature", "geometry": {"type": "Point", "coordinates": [-0.044411, 52.132078]}, "properties": {"name": "Wimpole", "description": "This site is located on the working Wimpole Estate. The National Trust site hosts parkland, gardens, and the farm where nature-friendly farming methods aim to benefit local biodiversity. The COSMOS-UK site is situated in an arable field on clay to clayey loam soils.", "url": "https://dri-ui.staging.eds.ceh.ac.uk/cosmos/sites/WIMPL?view=explore"}}, {"type": "Feature", "geometry": {"type": "Point", "coordinates": [-6.068526, 54.446959]}, "properties": {"name": "Hillsborough", "description": "The Hillsborough site is located within the grounds of the Agri Food and Bio Sciences Institute (AFBI), County Down, Northern Ireland. AFBI carry out agri-food research and development for the Department of Agriculture and Environment and private companies. The COSMOS-UK site is located on flat, well-grazed grassland on a sandy loam.", "url": "https://dri-ui.staging.eds.ceh.ac.uk/cosmos/sites/HILLB?view=explore"}}, {"type": "Feature", "geometry": {"type": "Point", "coordinates": [-2.229989, 55.479876]}, "properties": {"name": "Sourhope", "description": "The Sourhope site is located in the Scottish borders just over 1 km from the border with England. The site is on a south facing slope on the western side of The Cheviot Hills. The site is on an area of rough grassland in the headwaters of Beaumont Water.", "url": "https://dri-ui.staging.eds.ceh.ac.uk/cosmos/sites/SOURH?view=explore"}}, {"type": "Feature", "geometry": {"type": "Point", "coordinates": [-1.681482, 51.120071]}, "properties": {"name": "Porton Down", "description": "This COSMOS-UK site is located at an MOD site near Salisbury. The monitoring site is located on uneven grassland where soils are highly calcareous mineral soils with lower lattice and bound water than that of a typical mineral soil.", "url": "https://dri-ui.staging.eds.ceh.ac.uk/cosmos/sites/PORTN?view=explore"}}, {"type": "Feature", "geometry": {"type": "Point", "coordinates": [-3.111488, 56.482297]}, "properties": {"name": "Balruddery", "description": "The James Hutton Institute Balruddery Research Farm is a 170 ha arable farm located seven miles west of Dundee and on the lower slopes of the Sidlaw Hills. The soil is a sandy loam, slightly shallow in depth towards Balruddery Den towards the southwest margin of the CRNS footprint. The farm site includes the Centre for Sustainable Cropping Platform which provides a whole systems framework for designing and testing cropping systems.", "url": "https://dri-ui.staging.eds.ceh.ac.uk/cosmos/sites/BALRD?view=explore"}}, {"type": "Feature", "geometry": {"type": "Point", "coordinates": [-3.905963, 50.773479]}, "properties": {"name": "North Wyke", "description": "This site is a Rothamsted Research farm where scientists investigate the impact of agriculture on the land and atmosphere. The field where the COSMOS-UK site is located was a grassland with grazing livestock until 2019. Since then it has been used for arable crop production.", "url": "https://dri-ui.staging.eds.ceh.ac.uk/cosmos/sites/NWYKE?view=explore"}}, {"type": "Feature", "geometry": {"type": "Point", "coordinates": [0.429135, 51.26287]}, "properties": {"name": "Redhill", "description": "This site is located on a south facing slope among the vines on the Redhill Estate near Wateringbury in Kent. The soil is slightly calcareous with a sand to sandy loam texture.", "url": "https://dri-ui.staging.eds.ceh.ac.uk/cosmos/sites/REDHL?view=explore"}}, {"type": "Feature", "geometry": {"type": "Point", "coordinates": [-1.478766, 51.708021]}, "properties": {"name": "Chimney Meadows", "description": "Chimney Meadows is the Berks, Bucks & Oxon Wildlife Trust's largest nature reserve in Oxfordshire. Part of the site is a National Nature Reserve (owned by Natural England). These wildflower meadows make up one of England's largest remaining areas of unspoilt grassland. The site often floods during winter.", "url": "https://dri-ui.staging.eds.ceh.ac.uk/cosmos/sites/CHIMN?view=explore"}}, {"type": "Feature", "geometry": {"type": "Point", "coordinates": [-1.481903, 51.530244]}, "properties": {"name": "Sheepdrove", "description": "The site hosted by the Sheepdrove Organic Farm and Conference Centre is located in the rolling grasslands of the Berkshire Downs. The farm is run on strict organic standards to protect wildlife and the environment. No chemical fertilisers are used; instead organic matter such as compost or manure are added and as a result the soil contains a high organic matter content than might be expected on a chalk downland. The field in which the COSMOS-UK site is located was converted from grassland to arable in 2019. The site is co-located with eddy covariance flux monitoring equipment.", "url": "https://dri-ui.staging.eds.ceh.ac.uk/cosmos/sites/SHEEP?view=explore"}}, {"type": "Feature", "geometry": {"type": "Point", "coordinates": [-1.681482, 51.120071]}, "properties": {"name": "Test Site 1", "description": "This COSMOS-UK site is located at an MOD site near Salisbury. The monitoring site is located on uneven grassland where soils are highly calcareous mineral soils with lower lattice and bound water than that of a typical mineral soil.", "url": "https://dri-ui.staging.eds.ceh.ac.uk/cosmos/sites/TEST1?view=explore"}}]}